ONEWEB-0012             
1 44057U 19010A   25263.00799120  .00000030  00000+0  45531-4 0  9991
2 44057  87.8971 282.6439 0001911  78.6588 281.4757 13.16594993316015
ONEWEB-0010             
1 44058U 19010B   25262.95732573  .00000155  00000+0  37233-3 0  9991
2 44058  87.8971 282.6376 0001550 100.9444 259.1861 13.16595334316057
ONEWEB-0008             
1 44059U 19010C   25263.05863754  .00000103  00000+0  23589-3 0  9992
2 44059  87.8966 282.6149 0002054  92.3761 267.7605 13.16592580316181
ONEWEB-0007             
1 44060U 19010D   25263.10735726  .00000009  00000+0 -11245-4 0  9990
2 44060  87.9020 313.1252 0001558  94.8919 265.2390 13.15549082315866
ONEWEB-0006             
1 44061U 19010E   25263.11131043  .00000069  00000+0  14890-3 0  9997
2 44061  87.9026 313.0653 0001637  99.2520 260.8796 13.15548959315911
ONEWEB-0011             
1 44062U 19010F   25263.15567980 -.00000021  00000+0 -91132-4 0  9990
2 44062  87.9031 313.0690 0001962 103.2199 256.9150 13.15550359315915
ONEWEB-0013             
1 45131U 20008A   25262.97884169 -.00000670  00000+0 -19814-2 0  9992
2 45131  87.8470 107.4000 0002060  55.1165 305.0155 13.09431000270709
ONEWEB-0017             
1 45132U 20008B   25262.92323065 -.00000334  00000+0 -99430-3 0  9991
2 45132  87.8736  90.1690 0001519  95.5674 264.5626 13.10368797272550
ONEWEB-0020             
1 45133U 20008C   25262.96973605  .00000638  00000+0  17899-2 0  9990
2 45133  87.8738  90.1428 0001851  90.0698 270.0642 13.10372736272959
ONEWEB-0021             
1 45134U 20008D   25262.90831645  .00000418  00000+0  11609-2 0  9991
2 45134  87.8734  90.1887 0001563  82.2168 277.9137 13.10369784273258
ONEWEB-0023             
1 45136U 20008F   25262.99545231 -.00000105  00000+0 -33577-3 0  9999
2 45136  87.8733  90.1530 0001923  81.3034 278.8311 13.10369017272696
ONEWEB-0024             
1 45137U 20008G   25262.96808798  .00000624  00000+0  17522-2 0  9992
2 45137  87.8758  90.1125 0001611  87.5230 272.6082 13.10374464272851
ONEWEB-0025             
1 45138U 20008H   25262.98550653  .00000358  00000+0  98960-3 0  9999
2 45138  87.8748  90.1191 0001800  67.1655 292.9662 13.10370842273181
ONEWEB-0026             
1 45139U 20008J   25262.99169724  .00000119  00000+0  29968-3 0  9993
2 45139  87.8782  74.8888 0001678  96.2493 263.8826 13.11419112275690
ONEWEB-0028             
1 45140U 20008K   25262.94845936  .00000052  00000+0  11118-3 0  9990
2 45140  87.8776  74.9177 0001807  69.2685 290.8637 13.11415697273203
ONEWEB-0032             
1 45141U 20008L   25262.92489763 -.00000425  00000+0 -12539-2 0  9994
2 45141  87.8734  90.1689 0001706  82.4337 277.6984 13.10369748272903
ONEWEB-0033             
1 45142U 20008M   25262.97637840  .00000680  00000+0  19124-2 0  9999
2 45142  87.8734  90.1703 0001573  92.4646 267.6662 13.10371538272820
