[{"OBJECT_NAME":"ONEWEB-0012","OBJECT_ID":"2019-010A","EPOCH":"2025-09-20T00:11:30.439680","MEAN_MOTION":13.16594993,"ECCENTRICITY":0.00019112,"INCLINATION":87.8971,"RA_OF_ASC_NODE":282.6439,"ARG_OF_PERICENTER":78.6588,"MEAN_ANOMALY":281.4757,"EPHEMERIS_TYPE":0,"CLASSIFICATION_TYPE":"U","NORAD_CAT_ID":44057,"ELEMENT_SET_NO":999,"REV_AT_EPOCH":31601,"BSTAR":4.5530839e-5,"MEAN_MOTION_DOT":3.0e-7,"MEAN_MOTION_DDOT":0},{"OBJECT_NAME":"ONEWEB-0010","OBJECT_ID":"2019-010B","EPOCH":"2025-09-19T22:58:32.943072","MEAN_MOTION":13.16595334,"ECCENTRICITY":0.00015503,"INCLINATION":87.8971,"RA_OF_ASC_NODE":282.6376,"ARG_OF_PERICENTER":100.9444,"MEAN_ANOMALY":259.1861,"EPHEMERIS_TYPE":0,"CLASSIFICATION_TYPE":"U","NORAD_CAT_ID":44058,"ELEMENT_SET_NO":999,"REV_AT_EPOCH":31605,"BSTAR":0.00037233088,"MEAN_MOTION_DOT":1.55e-6,"MEAN_MOTION_DDOT":0},{"OBJECT_NAME":"ONEWEB-0008","OBJECT_ID":"2019-010C","EPOCH":"2025-09-20T01:24:26.283456","MEAN_MOTION":13.1659258,"ECCENTRICITY":0.00020546,"INCLINATION":87.8966,"RA_OF_ASC_NODE":282.6149,"ARG_OF_PERICENTER":92.3761,"MEAN_ANOMALY":267.7605,"EPHEMERIS_TYPE":0,"CLASSIFICATION_TYPE":"U","NORAD_CAT_ID":44059,"ELEMENT_SET_NO":999,"REV_AT_EPOCH":31618,"BSTAR":0.00023589381,"MEAN_MOTION_DOT":1.03e-6,"MEAN_MOTION_DDOT":0},{"OBJECT_NAME":"ONEWEB-0007","OBJECT_ID":"2019-010D","EPOCH":"2025-09-20T02:34:35.667264","MEAN_MOTION":13.15549082,"ECCENTRICITY":0.00015581,"INCLINATION":87.902,"RA_OF_ASC_NODE":313.1252,"ARG_OF_PERICENTER":94.8919,"MEAN_ANOMALY":265.239,"EPHEMERIS_TYPE":0,"CLASSIFICATION_TYPE":"U","NORAD_CAT_ID":44060,"ELEMENT_SET_NO":999,"REV_AT_EPOCH":31586,"BSTAR":-1.1244866e-5,"MEAN_MOTION_DOT":9.0e-8,"MEAN_MOTION_DDOT":0},{"OBJECT_NAME":"ONEWEB-0006","OBJECT_ID":"2019-010E","EPOCH":"2025-09-20T02:40:17.221152","MEAN_MOTION":13.15548959,"ECCENTRICITY":0.00016373,"INCLINATION":87.9026,"RA_OF_ASC_NODE":313.0653,"ARG_OF_PERICENTER":99.252,"MEAN_ANOMALY":260.8796,"EPHEMERIS_TYPE":0,"CLASSIFICATION_TYPE":"U","NORAD_CAT_ID":44061,"ELEMENT_SET_NO":999,"REV_AT_EPOCH":31591,"BSTAR":0.00014889853,"MEAN_MOTION_DOT":6.9e-7,"MEAN_MOTION_DDOT":0},{"OBJECT_NAME":"ONEWEB-0011","OBJECT_ID":"2019-010F","EPOCH":"2025-09-20T03:44:10.734720","MEAN_MOTION":13.15550359,"ECCENTRICITY":0.0001962,"INCLINATION":87.9031,"RA_OF_ASC_NODE":313.069,"ARG_OF_PERICENTER":103.2199,"MEAN_ANOMALY":256.915,"EPHEMERIS_TYPE":0,"CLASSIFICATION_TYPE":"U","NORAD_CAT_ID":44062,"ELEMENT_SET_NO":999,"REV_AT_EPOCH":31591,"BSTAR":-9.1131893e-5,"MEAN_MOTION_DOT":-2.1e-7,"MEAN_MOTION_DDOT":0},{"OBJECT_NAME":"ONEWEB-0013","OBJECT_ID":"2020-008A","EPOCH":"2025-09-19T23:29:31.922016","MEAN_MOTION":13.09431,"ECCENTRICITY":0.000206,"INCLINATION":87.847,"RA_OF_ASC_NODE":107.4,"ARG_OF_PERICENTER":55.1165,"MEAN_ANOMALY":305.0155,"EPHEMERIS_TYPE":0,"CLASSIFICATION_TYPE":"U","NORAD_CAT_ID":45131,"ELEMENT_SET_NO":999,"REV_AT_EPOCH":27070,"BSTAR":-0.0019814324,"MEAN_MOTION_DOT":-6.7e-6,"MEAN_MOTION_DDOT":0},{"OBJECT_NAME":"ONEWEB-0017","OBJECT_ID":"2020-008B","EPOCH":"2025-09-19T22:09:27.128160","MEAN_MOTION":13.10368797,"ECCENTRICITY":0.00015194,"INCLINATION":87.8736,"RA_OF_ASC_NODE":90.169,"ARG_OF_PERICENTER":95.5674,"MEAN_ANOMALY":264.5626,"EPHEMERIS_TYPE":0,"CLASSIFICATION_TYPE":"U","NORAD_CAT_ID":45132,"ELEMENT_SET_NO":999,"REV_AT_EPOCH":27255,"BSTAR":-0.00099430108,"MEAN_MOTION_DOT":-3.34e-6,"MEAN_MOTION_DDOT":0},{"OBJECT_NAME":"ONEWEB-0020","OBJECT_ID":"2020-008C","EPOCH":"2025-09-19T23:16:25.194720","MEAN_MOTION":13.10372736,"ECCENTRICITY":0.00018517,"INCLINATION":87.8738,"RA_OF_ASC_NODE":90.1428,"ARG_OF_PERICENTER":90.0698,"MEAN_ANOMALY":270.0642,"EPHEMERIS_TYPE":0,"CLASSIFICATION_TYPE":"U","NORAD_CAT_ID":45133,"ELEMENT_SET_NO":999,"REV_AT_EPOCH":27295,"BSTAR":0.0017899082,"MEAN_MOTION_DOT":6.38e-6,"MEAN_MOTION_DDOT":0},{"OBJECT_NAME":"ONEWEB-0021","OBJECT_ID":"2020-008D","EPOCH":"2025-09-19T21:47:58.541280","MEAN_MOTION":13.10369784,"ECCENTRICITY":0.00015636,"INCLINATION":87.8734,"RA_OF_ASC_NODE":90.1887,"ARG_OF_PERICENTER":82.2168,"MEAN_ANOMALY":277.9137,"EPHEMERIS_TYPE":0,"CLASSIFICATION_TYPE":"U","NORAD_CAT_ID":45134,"ELEMENT_SET_NO":999,"REV_AT_EPOCH":27325,"BSTAR":0.0011608566,"MEAN_MOTION_DOT":4.18e-6,"MEAN_MOTION_DDOT":0},{"OBJECT_NAME":"ONEWEB-0023","OBJECT_ID":"2020-008F","EPOCH":"2025-09-19T23:53:27.079584","MEAN_MOTION":13.10369017,"ECCENTRICITY":0.00019232,"INCLINATION":87.8733,"RA_OF_ASC_NODE":90.153,"ARG_OF_PERICENTER":81.3034,"MEAN_ANOMALY":278.8311,"EPHEMERIS_TYPE":0,"CLASSIFICATION_TYPE":"U","NORAD_CAT_ID":45136,"ELEMENT_SET_NO":999,"REV_AT_EPOCH":27269,"BSTAR":-0.00033576728,"MEAN_MOTION_DOT":-1.05e-6,"MEAN_MOTION_DDOT":0},{"OBJECT_NAME":"ONEWEB-0024","OBJECT_ID":"2020-008G","EPOCH":"2025-09-19T23:14:02.801472","MEAN_MOTION":13.10374464,"ECCENTRICITY":0.00016113,"INCLINATION":87.8758,"RA_OF_ASC_NODE":90.1125,"ARG_OF_PERICENTER":87.523,"MEAN_ANOMALY":272.6082,"EPHEMERIS_TYPE":0,"CLASSIFICATION_TYPE":"U","NORAD_CAT_ID":45137,"ELEMENT_SET_NO":999,"REV_AT_EPOCH":27285,"BSTAR":0.0017522359,"MEAN_MOTION_DOT":6.24e-6,"MEAN_MOTION_DDOT":0},{"OBJECT_NAME":"ONEWEB-0025","OBJECT_ID":"2020-008H","EPOCH":"2025-09-19T23:39:07.764192","MEAN_MOTION":13.10370842,"ECCENTRICITY":0.00018001,"INCLINATION":87.8748,"RA_OF_ASC_NODE":90.1191,"ARG_OF_PERICENTER":67.1655,"MEAN_ANOMALY":292.9662,"EPHEMERIS_TYPE":0,"CLASSIFICATION_TYPE":"U","NORAD_CAT_ID":45138,"ELEMENT_SET_NO":999,"REV_AT_EPOCH":27318,"BSTAR":0.00098959592,"MEAN_MOTION_DOT":3.58e-6,"MEAN_MOTION_DDOT":0},{"OBJECT_NAME":"ONEWEB-0026","OBJECT_ID":"2020-008J","EPOCH":"2025-09-19T23:48:02.641536","MEAN_MOTION":13.11419112,"ECCENTRICITY":0.00016788,"INCLINATION":87.8782,"RA_OF_ASC_NODE":74.8888,"ARG_OF_PERICENTER":96.2493,"MEAN_ANOMALY":263.8826,"EPHEMERIS_TYPE":0,"CLASSIFICATION_TYPE":"U","NORAD_CAT_ID":45139,"ELEMENT_SET_NO":999,"REV_AT_EPOCH":27569,"BSTAR":0.00029967876,"MEAN_MOTION_DOT":1.19e-6,"MEAN_MOTION_DDOT":0},{"OBJECT_NAME":"ONEWEB-0028","OBJECT_ID":"2020-008K","EPOCH":"2025-09-19T22:45:46.888704","MEAN_MOTION":13.11415697,"ECCENTRICITY":0.00018075,"INCLINATION":87.8776,"RA_OF_ASC_NODE":74.9177,"ARG_OF_PERICENTER":69.2685,"MEAN_ANOMALY":290.8637,"EPHEMERIS_TYPE":0,"CLASSIFICATION_TYPE":"U","NORAD_CAT_ID":45140,"ELEMENT_SET_NO":999,"REV_AT_EPOCH":27320,"BSTAR":0.00011118181,"MEAN_MOTION_DOT":5.2e-7,"MEAN_MOTION_DDOT":0},{"OBJECT_NAME":"ONEWEB-0032","OBJECT_ID":"2020-008L","EPOCH":"2025-09-19T22:11:51.155232","MEAN_MOTION":13.10369748,"ECCENTRICITY":0.00017064,"INCLINATION":87.8734,"RA_OF_ASC_NODE":90.1689,"ARG_OF_PERICENTER":82.4337,"MEAN_ANOMALY":277.6984,"EPHEMERIS_TYPE":0,"CLASSIFICATION_TYPE":"U","NORAD_CAT_ID":45141,"ELEMENT_SET_NO":999,"REV_AT_EPOCH":27290,"BSTAR":-0.0012538578,"MEAN_MOTION_DOT":-4.25e-6,"MEAN_MOTION_DDOT":0},{"OBJECT_NAME":"ONEWEB-0033","OBJECT_ID":"2020-008M","EPOCH":"2025-09-19T23:25:59.093760","MEAN_MOTION":13.10371538,"ECCENTRICITY":0.00015739,"INCLINATION":87.8734,"RA_OF_ASC_NODE":90.1703,"ARG_OF_PERICENTER":92.4646,"MEAN_ANOMALY":267.6662,"EPHEMERIS_TYPE":0,"CLASSIFICATION_TYPE":"U","NORAD_CAT_ID":45142,"ELEMENT_SET_NO":999,"REV_AT_EPOCH":27282,"BSTAR":0.0019123835,"MEAN_MOTION_DOT":6.8e-6,"MEAN_MOTION_DDOT":0}]
